#dP2021  4  8  0  0  0.00000000      96 __u+U ITR00 FIT  IAC
## 2152 345600.00000000   900.00000000 59312 0.0000000000000
+  127   C01C02C03C04C05C06C07C08C09C10C11C12C13C14C16C19C20
+        C21C22C23C24C25C26C27C28C29C30C32C33C34C35C36C37C38
+        C39C40C41C42C43C44C45C46C60E01E02E03E04E05E07E08E09
+        E11E12E13E14E15E18E19E21E24E25E26E27E30E31E33E36G01
+        G02G03G04G05G06G07G08G09G10G11G12G13G14G15G16G17G18
+        G19G20G21G22G23G24G25G26G27G28G29G30G31G32J01J02J03
+        J07R01R02R03R04R05R06R07R08R09R10R11R12R13R14R15R16
+        R17R18R19R20R21R22R23R24  0  0  0  0  0  0  0  0  0
++        13 13 13 12 13 10  9 10  9  9  9  9 10  9 10  8  8
++         8  8  8  8  8  8  8  8  8  8  8  9  8  8  9  9 12
++        10  9  9  9  9  9  9  9 13  5  5  5  4  5  5  5  4
++         5  5  5  5  5  5  4  5  5  5  5  4  5  5  6  5  4
++         4  4  4  4  4  4  4  4  4  5  4  4  4  4  4  4  4
++         4  5  4  4  4  4  4  4  4  5  4  4  4  4  9  9  8
++        13  8  6  6  6  6 13  6  6  6 13  8  6  8  6  6  8
++         6  6  8  8  6  8 13  6  0  0  0  0  0  0  0  0  0
%c M  cc GPS ccc cccc cccc cccc cccc ccccc ccccc ccccc ccccc
%c cc cc ccc ccc cccc cccc cccc cccc ccccc ccccc ccccc ccccc
%f  0.0000000  0.000000000  0.00000000000  0.000000000000000
%f  0.0000000  0.000000000  0.00000000000  0.000000000000000
%i    0    0    0    0      0      0      0      0         0
%i    0    0    0    0      0      0      0      0         0
/* INFORMATION & ANALYSIS CENTER (IAC)            RAPID DATA
/* S/V CLOCKS ARE ALIGNED TO GNSS TIME                      
/* G:C1WC2W R:C1PC2P E:C1XC5X C:C2IC6I J:C1CC2S             
/* PCV:IGS14_2148 OL/AL:FES2004  NONE     YN ORB:CoN CLK:CoN
*  2021 04 08 20 45  0.00000000
PC01 -34385.193535  24406.479229   -122.967907   -578.787304
PC02   4435.154311  41952.772329    719.097433    775.042988
PC03 -14785.505077  39534.149333   -260.695931   -419.169257
PC04 -39588.771459  14503.414934   -528.695604    646.562420
PC05  21928.451355  36051.941319    647.787431     66.068995
PC06 -10752.780018  22540.495346  34455.453777    258.407416
PC07 -25318.494021  30777.113431 -14268.441195   -100.505914
PC08 -10559.834171  36390.558193 -17989.704390   -893.468815
PC09   4832.064236  29389.867574  30300.452192    609.807088
PC10 -11517.972161  32076.531398 -24888.123891    -59.397043
PC11   4872.945235 -15363.602468  22844.937570   -820.789730
PC12  19680.781321   -872.663380  19792.245595    928.646250
PC13  -2085.562980  41712.914668  -4606.261131    213.675849
PC14  15690.400658 -17577.026744 -14878.632591    418.102001
PC16  -6481.444434  23962.072609  34220.905072   -773.781247
PC19  -5761.205124  17838.480431  20710.118890    791.581831
PC20 -22031.751738  15094.626544   8170.517923   -949.424758
PC21  25893.423765  -3081.168591   9931.521041   -930.695918
PC22  14310.325267  10353.746227  21606.681188   -954.143643
PC23  -9327.483976 -20046.430441  17026.480879   -885.424403
PC24  13910.543227 -18683.051420 -15398.309437   -807.584111
PC25   2133.790843 -27778.563033   1776.202756   -935.568208
PC26  16325.319674   -467.472824 -22638.996998    923.785526
PC27 -23486.708744  -7336.927725 -13162.176218    512.204404
PC28 -19555.849962 -19480.150004   4109.492856    -88.602863
PC29   4914.587998  19973.437305 -18870.324371    376.169240
PC30 -13722.072998   9169.077038 -22504.723907    458.769027
PC32 -25888.111002   3321.849559  -9869.723044   -934.463533
PC33   5722.162431 -17877.376420 -20631.596662   -942.190957
PC34  13207.417960  -9686.562083  22587.527464   -700.337638
PC35  20046.049038  18938.590431  -4412.109240   -336.227206
PC36  -3026.416751  27703.644219  -1421.137253   -733.219873
PC37 -16215.635237   -979.811852  22701.853330   -892.003031
PC38  -8939.252923  38660.770447 -14081.338211    141.033899
PC39  -2677.319899  25102.150817  33816.266819     30.137250
PC40 -17516.306425  27853.448984 -26412.953592    149.197065
PC41 -14110.460444 -10474.151853 -21622.940955   -941.097932
PC42  22459.172446 -14770.061023  -7417.452306   -927.367521
PC43  -4248.564655 -19910.160069  19066.534005   -676.674895
PC44  23831.584236   6712.273652  12903.588739    127.738728
PC45   9339.144401  19920.910366 -17154.487888    408.621037
PC46 -13432.501725  19468.058439  14782.996982    325.221990
PC60   7292.385145  41504.815108  -1773.560484      0.818283
PE01 -20435.105725  20031.339796   7551.311901  -1082.861772
PE02  20411.846583 -20116.557701  -7451.191448    210.796801
PE03  22631.764348  -9648.971493 -16446.543909   -417.966360
PE04  -2895.723733  16894.298015  24142.138453   -746.068269
PE05  29388.599592   3378.186723   1028.360264   -290.408144
PE07 -18946.594397 -14281.224053 -17694.701398   -523.148447
PE08   2417.090702 -16799.875745 -24244.890681   6020.616764
PE09  19145.493209  14030.802907  17684.024374   5707.413729
PE11  15473.257932  24701.685391   5221.536969   6116.325329
PE12   2311.528946  26064.095715 -13861.020592   5269.434903
PE13 -15336.846461 -24845.419153  -4816.717426    414.741586
PE14  -7144.323930  19188.009429 -24871.330807  -1390.198183
PE15  -2439.447277 -26025.239856  13885.951474    820.459116
PE18  -3735.312298 -16654.461930  17219.645744  -1520.757620
PE19 -24233.205272   8250.346212  14868.558573    247.377258
PE21 -20038.502785   3237.465372  21535.856284   -658.229857
PE24   7439.615952  16718.807457 -23276.249822   -836.699715
PE25  19980.483683  -3048.705254 -21627.164353   -530.511262
PE26 -19178.511839  -8271.112153 -20967.606060   1947.166216
PE27  -8044.106206 -16090.164420  23507.056331     -7.042070
PE30   9407.116767 -25885.383082  10855.230494   3040.764432
PE31  -8589.059985  25817.457967 -11647.155790   -479.969733
PE33 -11850.416084  11905.505967 -24367.581519   -467.348053
PE36  19187.614886   9042.145560  20656.931583   -191.058283
PG01  14407.829139  -2426.674598  21935.818070    721.266407
PG02 -13596.414911 -20232.410131  -9834.371774   -593.873415
PG03  21829.804330 -10778.493805  10403.483288   -131.323534
PG04  24099.790116   -187.237832 -11221.228974   -190.790103
PG05 -16236.695558  -4414.394568 -20744.028876    -38.529283
PG06  -5837.180174 -25875.668168    424.561379      5.845696
PG07   8993.364154 -17084.567162 -17673.580961    116.035986
PG08  26052.198248   5150.671017   3003.022224    -16.793343
PG09  16810.203589  -8978.531054 -18572.237154   -337.469117
PG10  -7415.300264  20870.947980  14573.937447    -97.982554
PG11  18762.849148    127.793896  18225.642802     24.137608
PG12 -22064.318115   6912.318973  12682.402844    -25.172711
PG13 -22509.272757 -13522.142883  -4565.211249    117.572181
PG14   9283.005069 -20755.510649  13702.415491     97.324925
PG15 -26442.222974  -2597.278913   2758.680046   -157.518436
PG16  13240.005376   8385.815008 -21747.966285   -306.658089
PG17   -426.011501 -15677.557565  21862.025363    423.218709
PG18  -6638.578207  20386.253767 -15645.369716    351.591599
PG19  -9694.810910 -16937.626380  17779.072165    -15.521655
PG20 -19180.189747  17101.229367  -6021.953575    523.375751
PG21  16952.319122   5650.039821  20510.677188    109.517272
PG22  19767.880194  -2870.829224  17612.080977   -642.373371
PG23 -16106.801743  20570.612879   4629.043791    114.496873
PG24 -16644.469680  -3089.480426  20303.292253      0.022552
PG25 -19727.660576  17491.407131   1251.894593    114.818796
PG26   5395.331039  15911.257275 -20573.010592     69.485188
PG27  22070.229165  12596.818467  -8523.749245   -109.178657
PG28      0.000000      0.000000      0.000000 999999.999999
PG29 -16699.656823   7404.256230 -19342.591163   -326.554318
PG30    456.715585 -25277.879674  -7694.095140   -410.117711
PG31   7266.470244  25148.357213  -2702.976034   -110.443572
PG32   3374.827790  16272.443227  20860.355823     22.056766
PJ01 -31122.536847  25280.535834  18011.352110   -363.436023
PJ02 -32280.122736  25953.480511  12624.779731      5.050242
PJ03 -24618.709242  17230.899133 -25001.093583     -3.041125
PJ07 -25402.221050  33659.662977     53.663238     -0.006958
PR01   1010.832526 -11466.331800 -22755.599507     77.595076
PR02 -19397.441756  -3929.587813 -16010.912262    474.039515
PR03 -24961.190462   5118.493585    227.035140     33.866773
PR04 -16425.179361  10991.881778  16154.893291     81.531727
PR05   1265.210458  10786.064301  23095.594272     69.632160
PR06  20216.733280   3016.984233  15269.548711    195.900739
PR07  24954.189850  -5340.505704   -743.524769    -42.545498
PR08  16421.771830 -11053.854953 -16039.561338    -58.426144
PR09   8299.195562   9690.248436 -22085.975852    -13.030975
PR10  12900.876852  -8231.603839 -20442.273452    -67.808372
PR11  10384.303215 -22335.402178  -6604.558818      1.283563
PR12   1841.545031 -22770.040228  11394.119557    219.265393
PR13  -7811.713243 -10127.701702  22048.990189    -53.145895
PR14 -13128.976757   9095.625265  19899.239048     62.933845
PR15 -10614.131496  22355.572208   6193.823433    104.484609
PR16   -629.320490  22319.006512 -12238.239996    -13.550265
PR17 -15617.810641  -4282.394315 -19711.516292    414.633418
PR18  -4543.697463  10410.536189 -22832.596691     72.547343
PR19   7763.219135  19543.039092 -14442.159273   -139.004569
PR20  17512.523824  17909.740807   4962.939934    -46.919317
PR21  14979.234084   3286.076087  20376.880989   -200.338399
PR22   3815.228050 -11072.961411  22631.132007   -106.807867
PR23 -12791.366802 -20515.996078   8110.754860    377.338653
PR24 -17960.773529 -17226.420239  -5595.608717     38.104961
EOF
